{
  "type": "FeatureCollection",
  "name": "faunavia-f0-routes",
  "crs": {
    "type": "name",
    "properties": { "name": "urn:ogc:def:crs:OGC:1.3:CRS84" }
  },
  "features": [
    {
      "type": "Feature",
      "properties": {
        "id": "f0-it-lom-001",
        "name": "Parco Nord Milano",
        "environment": "parco urbano e prati",
        "synthetic": true,
        "pilot": true
      },
      "geometry": {
        "type": "LineString",
        "coordinates": [
          [9.184, 45.5205],
          [9.1875, 45.526],
          [9.194, 45.531],
          [9.202, 45.5285],
          [9.1985, 45.522],
          [9.19, 45.5185],
          [9.184, 45.5205]
        ]
      }
    },
    {
      "type": "Feature",
      "properties": {
        "id": "f0-it-lom-002",
        "name": "Naviglio Grande",
        "environment": "canale periurbano",
        "synthetic": true,
        "pilot": false
      },
      "geometry": {
        "type": "LineString",
        "coordinates": [
          [9.175, 45.45],
          [9.159, 45.445],
          [9.142, 45.44],
          [9.123, 45.4335],
          [9.105, 45.428]
        ]
      }
    },
    {
      "type": "Feature",
      "properties": {
        "id": "f0-it-lom-003",
        "name": "Parco del Ticino",
        "environment": "corridoio fluviale e agricolo",
        "synthetic": true,
        "pilot": false
      },
      "geometry": {
        "type": "LineString",
        "coordinates": [
          [8.745, 45.405],
          [8.755, 45.397],
          [8.764, 45.389],
          [8.775, 45.381]
        ]
      }
    },
    {
      "type": "Feature",
      "properties": {
        "id": "f0-it-lom-004",
        "name": "Monte Barro",
        "environment": "rilievo prealpino",
        "synthetic": true,
        "pilot": false
      },
      "geometry": {
        "type": "LineString",
        "coordinates": [
          [9.365, 45.815],
          [9.37, 45.821],
          [9.377, 45.826],
          [9.383, 45.83]
        ]
      }
    },
    {
      "type": "Feature",
      "properties": {
        "id": "f0-it-lom-005",
        "name": "Centro di Milano",
        "environment": "urbano denso",
        "synthetic": true,
        "pilot": false
      },
      "geometry": {
        "type": "LineString",
        "coordinates": [
          [9.172, 45.468],
          [9.181, 45.466],
          [9.19, 45.4642],
          [9.199, 45.4615],
          [9.207, 45.458]
        ]
      }
    }
  ]
}
